*******************************************************************************
Ephemeris / PORT_LOGIN Sun Nov 27 10:15:28 2011 Pasadena, USA    / Horizons    
*******************************************************************************
Target body name: Pluto (999)                     {source: PLU021}
Center body name: Solar System Barycenter (0)     {source: DE405}
Center-site name: BODY CENTER
*******************************************************************************
Start time      : A.D. 2001-Jan-01 10:00:00.0000 CT 
Stop  time      : A.D. 2001-Jan-02 00:00:00.0000 CT 
Step-size       : 60 minutes
*******************************************************************************
Center geodetic : 0.00000000,0.00000000,0.0000000 {E-lon(deg),Lat(deg),Alt(km)}
Center cylindric: 0.00000000,0.00000000,0.0000000 {E-lon(deg),Dxy(km),Dz(km)}
Center radii    : (undefined)                                                  
Output units    : AU-D                                                         
Output format   : 03
Reference frame : ICRF/J2000.0                                                 
Output type     : GEOMETRIC cartesian states
Coordinate systm: Earth Mean Equator and Equinox of Reference Epoch            
*******************************************************************************
JDCT 
   X     Y     Z
   VX    VY    VZ
   LT    RG    RR
*******************************************************************************
$$SOE
2451910.916666667 = A.D. 2001-Jan-01 10:00:00.0000 (CT)
  -8.765434046315912E+00 -2.837645444552841E+01 -6.214437330990672E+00
   3.063895475959584E-03 -1.031848393747199E-03 -1.253692836516374E-03
   1.752444192944302E-01  3.034263060877012E+01  3.366491494122504E-04
2451910.958333333 = A.D. 2001-Jan-01 11:00:00.0000 (CT)
  -8.765306390059173E+00 -2.837649744341438E+01 -6.214489559580342E+00
   3.063606731659288E-03 -1.032048011352535E-03 -1.253277023274172E-03
   1.752445003324865E-01  3.034264464007461E+01  3.368504358016562E-04
2451911.000000000 = A.D. 2001-Jan-01 12:00:00.0000 (CT)
  -8.765178745594532E+00 -2.837654044935007E+01 -6.214541770543722E+00
   3.063329536099349E-03 -1.032234721258307E-03 -1.252846890761200E-03
   1.752445814167808E-01  3.034265867938496E+01  3.370333767791820E-04
2451911.041666667 = A.D. 2001-Jan-01 13:00:00.0000 (CT)
  -8.765051112430804E+00 -2.837658346279048E+01 -6.214593963298861E+00
   3.063064365826521E-03 -1.032408183304570E-03 -1.252403147836245E-03
   1.752446625428604E-01  3.034267272593021E+01  3.371976618095061E-04
2451911.083333333 = A.D. 2001-Jan-01 14:00:00.0000 (CT)
  -8.764923490057340E+00 -2.837662648317692E+01 -6.214646137293835E+00
   3.062811677759574E-03 -1.032568079138598E-03 -1.251946526814693E-03
   1.752447437062015E-01  3.034268677892711E+01  3.373430112400857E-04
2451911.125000000 = A.D. 2001-Jan-01 15:00:00.0000 (CT)
  -8.764795877944888E+00 -2.837666950993787E+01 -6.214698292007704E+00
   3.062571908388736E-03 -1.032714112788961E-03 -1.251477782295532E-03
   1.752448249022169E-01  3.034270083758136E+01  3.374691768288707E-04
2451911.166666667 = A.D. 2001-Jan-01 16:00:00.0000 (CT)
  -8.764668275546438E+00 -2.837671254248998E+01 -6.214750426951408E+00
   3.062345473005791E-03 -1.032846011204791E-03 -1.250997689946636E-03
   1.752449061262633E-01  3.034271490108904E+01  3.375759422220350E-04
2451911.208333333 = A.D. 2001-Jan-01 17:00:00.0000 (CT)
  -8.764540682298135E+00 -2.837675558023900E+01 -6.214802541668630E+00
   3.062132764966352E-03 -1.032963524759064E-03 -1.250507045249987E-03
   1.752449873736494E-01  3.034272896863786E+01  3.376631233805121E-04
2451911.250000000 = A.D. 2001-Jan-01 18:00:00.0000 (CT)
  -8.764413097620206E+00 -2.837679862258078E+01 -6.214854635736583E+00
   3.061934154985820E-03 -1.033066427714758E-03 -1.250006662208628E-03
   1.752450686396434E-01  3.034274303940854E+01  3.377305689542192E-04
2451911.291666667 = A.D. 2001-Jan-01 19:00:00.0000 (CT)
  -8.764285520917911E+00 -2.837684166890225E+01 -6.214906708766764E+00
   3.061749990470459E-03 -1.033154518652793E-03 -1.249497372017207E-03
   1.752451499194810E-01  3.034275711257618E+01  3.377781606029025E-04
2451911.333333333 = A.D. 2001-Jan-01 20:00:00.0000 (CT)
  -8.764157951582531E+00 -2.837688471858247E+01 -6.214958760405632E+00
   3.061580594885052E-03 -1.033227620860734E-03 -1.248980021698085E-03
   1.752452312083738E-01  3.034277118731164E+01  3.378058132626338E-04
2451911.375000000 = A.D. 2001-Jan-01 21:00:00.0000 (CT)
  -8.764030388992381E+00 -2.837692777099369E+01 -6.215010790335250E+00
   3.061426267158473E-03 -1.033285582681266E-03 -1.248455472705057E-03
   1.752453125015163E-01  3.034278526278295E+01  3.378134753570728E-04
2451911.416666667 = A.D. 2001-Jan-01 22:00:00.0000 (CT)
  -8.763902832513843E+00 -2.837697082550232E+01 -6.215062798273848E+00
   3.061287281128507E-03 -1.033328277819530E-03 -1.247924599496856E-03
   1.752453937940953E-01  3.034279933815668E+01  3.378011289526929E-04
2451911.458333333 = A.D. 2001-Jan-01 23:00:00.0000 (CT)
  -8.763775281502417E+00 -2.837701388147006E+01 -6.215114783976340E+00
   3.061163885027203E-03 -1.033355605608472E-03 -1.247388288082666E-03
   1.752454750812969E-01  3.034281341259934E+01  3.377687898572729E-04
2451911.500000000 = A.D. 2001-Jan-02 00:00:00.0000 (CT)
  -8.763647735303801E+00 -2.837705693825496E+01 -6.215166747234766E+00
   3.061056301007923E-03 -1.033367491231422E-03 -1.246847434541967E-03
   1.752455563583152E-01  3.034282748527882E+01  3.377165076610616E-04
$$EOE
*******************************************************************************
Coordinate system description:

  Earth Mean Equator and Equinox of Reference Epoch

    Reference epoch: J2000.0
    xy-plane: plane of the Earth's mean equator at the reference epoch
    x-axis  : out along ascending node of instantaneous plane of the Earth's
              orbit and the Earth's mean equator at the reference epoch
    z-axis  : along the Earth mean north pole at the reference epoch

Symbol meaning [1 AU=149597870.691 km, 1 day=86400.0 s]:

    JDCT     Epoch Julian Date, Coordinate Time
      X      x-component of position vector (AU)                               
      Y      y-component of position vector (AU)                               
      Z      z-component of position vector (AU)                               
      VX     x-component of velocity vector (AU/day)                           
      VY     y-component of velocity vector (AU/day)                           
      VZ     z-component of velocity vector (AU/day)                           
      LT     One-way down-leg Newtonian light-time (day)                       
      RG     Range; distance from coordinate center (AU)                       
      RR     Range-rate; radial velocity wrt coord. center (AU/day)            

Geometric states/elements have no aberration corrections applied.

 Computations by ...
     Solar System Dynamics Group, Horizons On-Line Ephemeris System
     4800 Oak Grove Drive, Jet Propulsion Laboratory
     Pasadena, CA  91109   USA
     Information: http://ssd.jpl.nasa.gov/
     Connect    : telnet://ssd.jpl.nasa.gov:6775  (via browser)
                  telnet ssd.jpl.nasa.gov 6775    (via command-line)
     Author     : Jon.Giorgini@jpl.nasa.gov
*******************************************************************************
